NORAD_CAT_ID,OBJECT_NAME,OBJECT_TYPE,EPOCH,MEAN_MOTION,ECCENTRICITY,INCLINATION,RA_OF_ASC_NODE,ARG_OF_PERICENTER,MEAN_ANOMALY,BSTAR,MEAN_MOTION_DOT,MEAN_MOTION_DDOT,TLE_LINE0,TLE_LINE1,TLE_LINE2,SEMIMAJOR_AXIS,PERIOD,APOGEE,PERIGEE,DECAYED
56458.0,STARLINK-6050,PAYLOAD,2023-10-08 18:49:40,14.98324951,0.0002992,70.0009,210.6403,273.3422,86.7395,1.7435e-05,1.15e-06,0.0,0 STARLINK-6050,1 56458U 23064L   23281.78450160  .00000115  00000-0  17435-4 0  9991,2 56458  70.0009 210.6403 0002992 273.3422  86.7395 14.98324951 23354,6950.209,96.107,574.153,569.994,0.0
56458.0,STARLINK-6050,PAYLOAD,2023-10-08 20:25:48,14.98325083,0.000302,70.0012,210.4731,271.9265,88.1548,6.8895e-05,7.29e-06,0.0,0 STARLINK-6050,1 56458U 23064L   23281.85126000  .00000729  00000-0  68895-4 0  9999,2 56458  70.0012 210.4731 0003020 271.9265  88.1548 14.98325083 23007,6950.208,96.107,574.172,569.974,0.0
56458.0,STARLINK-6050,PAYLOAD,2023-10-09 02:50:20,14.98338964,0.0003048,70.0007,209.7983,269.6403,90.4407,0.0001512,1.712e-05,0.0,0 STARLINK-6050,1 56458U 23064L   23282.11828900  .00001712  00000-0  15120-3 0  9992,2 56458  70.0007 209.7983 0003048 269.6403  90.4407 14.98338964 23405,6950.165,96.106,574.149,569.912,0.0
56458.0,STARLINK-6050,PAYLOAD,2023-10-09 12:27:08,14.98363632,0.0002982,70.0022,208.7886,282.2484,77.8341,-0.0005721,-6.918e-05,0.0,0 STARLINK-6050,1 56458U 23064L   23282.51884940 -.00006918  00000-0 -57210-3 0  9993,2 56458  70.0022 208.7886 0002982 282.2484  77.8341 14.98363632 23102,6950.089,96.105,574.026,569.881,0.0
56458.0,STARLINK-6050,PAYLOAD,2023-10-09 18:51:41,14.98325121,0.0002588,70.0026,208.1158,278.2811,81.8054,3.9908e-05,3.83e-06,0.0,0 STARLINK-6050,1 56458U 23064L   23282.78590182  .00000383  00000-0  39908-4 0  9997,2 56458  70.0026 208.1158 0002588 278.2811  81.8054 14.98325121 23504,6950.208,96.107,573.872,570.274,0.0
56458.0,STARLINK-6050,PAYLOAD,2023-10-09 22:03:58,14.98324084,0.0002733,70.0017,207.7806,273.3575,86.7271,-2.2277e-05,-3.59e-06,0.0,0 STARLINK-6050,1 56458U 23064L   23282.91942389 -.00000359  00000-0 -22277-4 0  9998,2 56458  70.0017 207.7806 0002733 273.3575  86.7271 14.98324084 23168,6950.211,96.107,573.976,570.177,0.0
56458.0,STARLINK-6050,PAYLOAD,2023-10-10 04:28:29,14.9833232,0.0002983,70.0008,207.1055,270.9164,89.1654,1.1034e-05,3.9e-07,0.0,0 STARLINK-6050,1 56458U 23064L   23283.18645729  .00000039  00000-0  11034-4 0  9998,2 56458  70.0008 207.1055 0002983 270.9164  89.1654 14.98332320 23560,6950.186,96.107,574.124,569.977,0.0
56458.0,STARLINK-6050,PAYLOAD,2023-10-10 12:29:10,14.98326615,0.0002891,70.0029,206.2649,274.2395,85.8433,-0.00013081,-1.653e-05,0.0,0 STARLINK-6050,1 56458U 23064L   23283.52026488 -.00001653  00000-0 -13081-3 0  9999,2 56458  70.0029 206.2649 0002891 274.2395  85.8433 14.98326615 23257,6950.203,96.107,574.078,570.059,0.0
56458.0,STARLINK-6050,PAYLOAD,2023-10-10 22:05:59,14.98319821,0.000306,70.0019,205.2562,269.2168,90.864,-8.3317e-05,-1.087e-05,0.0,0 STARLINK-6050,1 56458U 23064L   23283.92082944 -.00001087  00000-0 -83317-4 0  9993,2 56458  70.0019 205.2562 0003060 269.2168  90.8640 14.98319821 23314,6950.224,96.108,574.216,569.963,0.0
56458.0,STARLINK-6050,PAYLOAD,2023-10-11 12:31:11,14.98332638,0.0002816,70.0017,203.7393,269.4772,90.6064,-8.4901e-05,-1.106e-05,0.0,0 STARLINK-6050,1 56458U 23064L   23284.52166248 -.00001106  00000-0 -84901-4 0  9992,2 56458  70.0017 203.7393 0002816 269.4772  90.6064 14.98332638 23407,6950.185,96.107,574.007,570.093,0.0
56458.0,STARLINK-6050,PAYLOAD,2023-10-11 18:55:44,14.98319927,0.0003003,70.0017,203.0661,270.7949,89.2866,0.00012409,1.388e-05,0.0,0 STARLINK-6050,1 56458U 23064L   23284.78870513  .00001388  00000-0  12409-3 0  9990,2 56458  70.0017 203.0661 0003003 270.7949  89.2866 14.98319927 23802,6950.224,96.108,574.176,570.002,0.0
56458.0,STARLINK-6050,PAYLOAD,2023-10-12 04:32:32,14.98331117,0.0002746,70.0015,202.0569,267.5857,92.4988,0.00010604,1.173e-05,0.0,0 STARLINK-6050,1 56458U 23064L   23285.18926002  .00001173  00000-0  10604-3 0  9997,2 56458  70.0015 202.0569 0002746 267.5857  92.4988 14.98331117 23863,6950.189,96.107,573.963,570.146,0.0
56458.0,STARLINK-6050,PAYLOAD,2023-10-12 22:10:00,14.98329455,0.0002847,70.0016,200.2055,268.4078,91.6755,0.00012432,1.391e-05,0.0,0 STARLINK-6050,1 56458U 23064L   23285.92361988  .00001391  00000-0  12432-3 0  9998,2 56458  70.0016 200.2055 0002847 268.4078  91.6755 14.98329455 23619,6950.195,96.107,574.038,570.081,0.0
56458.0,STARLINK-6050,PAYLOAD,2023-10-13 04:34:32,14.98341414,0.0002932,70.0008,199.5328,265.6954,94.387,0.0001573,1.785e-05,0.0,0 STARLINK-6050,1 56458U 23064L   23286.19065056  .00001785  00000-0  15730-3 0  9996,2 56458  70.0008 199.5328 0002932 265.6954  94.3870 14.98341414 24012,6950.158,96.106,574.06,569.985,0.0
56458.0,STARLINK-6050,PAYLOAD,2023-10-13 20:35:53,14.9833167,0.0002751,70.0014,197.8494,272.2796,87.8048,7.7046e-06,-1e-08,0.0,0 STARLINK-6050,1 56458U 23064L   23286.85825923 -.00000001  00000-0  77046-5 0  9997,2 56458  70.0014 197.8494 0002751 272.2796  87.8048 14.98331670 24119,6950.188,96.107,573.965,570.141,0.0
56458.0,STARLINK-6050,PAYLOAD,2023-10-13 22:12:01,14.98331048,0.0002824,70.0013,197.6806,272.6247,87.4589,1.2638e-05,5.8e-07,0.0,0 STARLINK-6050,1 56458U 23064L   23286.92501906  .00000058  00000-0  12638-4 0  9993,2 56458  70.0013 197.6806 0002824 272.6247  87.4589 14.98331048 23764,6950.19,96.107,574.017,570.092,0.0
56458.0,STARLINK-6050,PAYLOAD,2023-10-14 04:36:32,14.98341584,0.0002523,70.0025,197.0109,268.121,91.966,0.00013367,1.503e-05,0.0,0 STARLINK-6050,1 56458U 23064L   23287.19204817  .00001503  00000-0  13367-3 0  9999,2 56458  70.0025 197.0109 0002523 268.1210  91.9660 14.98341584 24164,6950.157,96.106,573.776,570.269,0.0
56458.0,STARLINK-6050,PAYLOAD,2023-10-14 11:01:05,14.98331574,0.0003104,70.0018,196.3349,268.9202,91.1601,-7.8526e-05,-1.03e-05,0.0,0 STARLINK-6050,1 56458U 23064L   23287.45909580 -.00001030  00000-0 -78526-4 0  9993,2 56458  70.0018 196.3349 0003104 268.9202  91.1601 14.98331574 23848,6950.188,96.107,574.21,569.896,0.0
56458.0,STARLINK-6050,PAYLOAD,2023-10-14 20:37:56,14.98312337,0.000305,70.0008,195.3251,268.6407,91.4403,-0.00030976,-3.785e-05,0.0,0 STARLINK-6050,1 56458U 23064L   23287.85967696 -.00003785  00000-0 -30976-3 0  9994,2 56458  70.0008 195.3251 0003050 268.6407  91.4403 14.98312337 24268,6950.248,96.108,574.232,569.993,0.0
56458.0,STARLINK-6050,PAYLOAD,2023-10-14 22:14:04,14.98312526,0.0003015,70.0008,195.1568,268.849,91.2324,-0.00030237,-3.697e-05,0.0,0 STARLINK-6050,1 56458U 23064L   23287.92643731 -.00003697  00000-0 -30237-3 0  9995,2 56458  70.0008 195.1568 0003015 268.8490  91.2324 14.98312526 23913,6950.247,96.108,574.207,570.016,0.0
56458.0,STARLINK-6050,PAYLOAD,2023-10-15 11:03:07,14.98340311,0.0002817,70.0018,193.8114,268.1412,91.9424,-0.00043543,-5.286e-05,0.0,0 STARLINK-6050,1 56458U 23064L   23288.46050580 -.00005286  00000-0 -43543-3 0  9999,2 56458  70.0018 193.8114 0002817 268.1412  91.9424 14.98340311 24352,6950.161,96.106,573.984,570.068,0.0
56458.0,STARLINK-6050,PAYLOAD,2023-10-15 20:39:56,14.98329841,0.0003121,70.0006,192.7989,268.1651,91.915,-9.8652e-05,-1.27e-05,0.0,0 STARLINK-6050,1 56458U 23064L   23288.86106564 -.00001270  00000-0 -98652-4 0  9998,2 56458  70.0006 192.7989 0003121 268.1651  91.9150 14.98329841 24059,6950.193,96.107,574.228,569.889,0.0
56458.0,STARLINK-6050,PAYLOAD,2023-10-16 03:04:27,14.98339399,0.0002999,70.0005,192.1264,267.3006,92.781,2.5642e-05,2.13e-06,0.0,0 STARLINK-6050,1 56458U 23064L   23289.12809567  .00000213  00000-0  25642-4 0  9994,2 56458  70.0005 192.1264 0002999 267.3006  92.7810 14.98339399 24450,6950.164,96.106,574.113,569.944,0.0
56458.0,STARLINK-6050,PAYLOAD,2023-10-16 17:29:40,14.98317327,0.0002994,70.0014,190.6127,266.1049,93.9768,0.00024038,2.775e-05,0.0,0 STARLINK-6050,1 56458U 23064L   23289.72894326  .00002775  00000-0  24038-3 0  9999,2 56458  70.0014 190.6127 0002994 266.1049  93.9768 14.98317327 24542,6950.232,96.108,574.178,570.016,0.0
56458.0,STARLINK-6050,PAYLOAD,2023-10-17 11:07:09,14.98325687,0.0003612,70.0009,188.7591,267.4161,92.6585,0.00016187,1.839e-05,0.0,0 STARLINK-6050,1 56458U 23064L   23290.46330757  .00001839  00000-0  16187-3 0  9991,2 56458  70.0009 188.7591 0003612 267.4161  92.6585 14.98325687 24299,6950.206,96.107,574.582,569.561,0.0
56458.0,STARLINK-6050,PAYLOAD,2023-10-18 01:32:21,14.98345818,0.0002968,70.0008,187.2458,266.0895,93.9925,0.00014465,1.634e-05,0.0,0 STARLINK-6050,1 56458U 23064L   23291.06413440  .00001634  00000-0  14465-3 0  9999,2 56458  70.0008 187.2458 0002968 266.0895  93.9925 14.98345818 24386,6950.144,96.106,574.072,569.946,0.0
56458.0,STARLINK-6050,PAYLOAD,2023-10-18 03:08:29,14.98347283,0.0002949,70.001,187.0774,266.2621,93.8201,0.00016024,1.82e-05,0.0,0 STARLINK-6050,1 56458U 23064L   23291.13089226  .00001820  00000-0  16024-3 0  9998,2 56458  70.0010 187.0774 0002949 266.2621  93.8201 14.98347283 24751,6950.139,96.106,574.054,569.955,0.0
56458.0,STARLINK-6050,PAYLOAD,2023-10-19 03:10:30,14.98327339,0.0003165,70.0034,184.5512,253.7383,106.3428,0.0002946,3.424e-05,0.0,0 STARLINK-6050,1 56458U 23064L   23292.13229465  .00003424  00000-0  29460-3 0  9990,2 56458  70.0034 184.5512 0003165 253.7383 106.3428 14.98327339 24904,6950.201,96.107,574.266,569.866,0.0
56458.0,STARLINK-6050,PAYLOAD,2023-10-19 22:24:06,14.98342591,0.0002563,70.002,182.532,260.3966,99.6903,-2.4928e-05,-3.9e-06,0.0,0 STARLINK-6050,1 56458U 23064L   23292.93341115 -.00000390  00000-0 -24928-4 0  9991,2 56458  70.0020 182.5320 0002563 260.3966  99.6903 14.98342591 24668,6950.154,96.106,573.8,570.238,0.0
56458.0,STARLINK-6050,PAYLOAD,2023-10-20 03:12:30,14.98348981,0.0002966,70.0005,182.0285,269.5903,90.4916,-1.4511e-06,-1.1e-06,0.0,0 STARLINK-6050,1 56458U 23064L   23293.13368522 -.00000110  00000-0 -14511-5 0  9993,2 56458  70.0005 182.0285 0002966 269.5903  90.4916 14.98348981 25051,6950.134,96.106,574.061,569.938,0.0
